UNKNOWN                 
1 81427U          25340.95570217  .00001597  00000+0  95061-3 0  9997
2 81427  98.7499 223.2731 0085355  54.5440 306.3658 14.06931637550953
UNKNOWN                 
1 81438U          25336.92632827  .00003678  00000+0  54092-2 0  9997
2 81438 100.3099 208.1917 0044746  92.3523 268.2736 13.54591197590615
UNKNOWN                 
1 81439U          25341.18166058  .00000373  00000+0  11698-2 0  9994
2 81439  67.1579 152.5426 0603445 206.5192 150.3748 12.62607051261191
UNKNOWN                 
1 81449U          25343.33075570  .00082018  00000+0  66132-2 0  9991
2 81449  66.7948   1.7367 0017677 129.6775 230.5922 14.99270228633040
UNKNOWN                 
1 81478U          25341.71505522  .00008904  00000+0  31983-2 0  9996
2 81478  98.9505 253.4858 0147979  13.1187  52.7966 14.28125267622226
UNKNOWN                 
1 81488U          25342.61430818  .00000290  00000+0  47358-3 0  9996
2 81488 100.0011 215.2114 0044947  10.5381  17.4601 13.56518752596075
UNKNOWN                 
1 81497U          25343.47463453  .00005824  00000+0  52530-2 0  9997
2 81497 100.2998 237.8214 0029709  22.1676 159.1699 13.84120296215844
UNKNOWN                 
1 81499U          25343.66302929  .00004066  00000+0  11225-2 0  9993
2 81499  74.0488 226.8128 0001859 286.2046  73.8908 14.47098761481975
UNKNOWN                 
1 81535U          25343.46262612  .00003014  00000+0  12451-2 0  9990
2 81535  98.2024  65.9524 0236043 158.0403 203.1091 14.13421543386932
UNKNOWN                 
1 81536U          25343.09767159  .00000828  00000+0  53112-2 0  9995
2 81536 101.9577 204.1204 0035324 297.5266 218.2123 12.55861713551359
UNKNOWN                 
1 81537U          25343.12558943  .00000780  00000+0  48074-3 0  9998
2 81537  71.0382 116.7253 0076346 159.5108 200.9102 14.07086680619951
UNKNOWN                 
1 81552U          25334.78977765  .00001048  00000+0  23273-2 0  9995
2 81552  99.0689 263.0944 0258917  46.5201 315.7133 13.18139573577678
