CCSDS_OMM_VERS = 2.0
CREATION_DATE  = 
ORIGINATOR     = 

OBJECT_NAME    = UNKNOWN
OBJECT_ID      = 
CENTER_NAME    = EARTH
REF_FRAME      = TEME
TIME_SYSTEM    = UTC
MEAN_ELEMENT_THEORY = SGP/SGP4

EPOCH          = 2025-12-06T22:56:12.667488
MEAN_MOTION    = 14.06931637
ECCENTRICITY   = .0085355
INCLINATION    = 98.7499
RA_OF_ASC_NODE = 223.2731
ARG_OF_PERICENTER = 54.5440
MEAN_ANOMALY   = 306.3658

EPHEMERIS_TYPE = 0
CLASSIFICATION_TYPE = U
NORAD_CAT_ID   = 81427
ELEMENT_SET_NO = 999
REV_AT_EPOCH   = 55095
BSTAR          = .95061E-3
MEAN_MOTION_DOT = .1597E-4
MEAN_MOTION_DDOT = 0

CCSDS_OMM_VERS = 2.0
CREATION_DATE  = 
ORIGINATOR     = 

OBJECT_NAME    = UNKNOWN
OBJECT_ID      = 
CENTER_NAME    = EARTH
REF_FRAME      = TEME
TIME_SYSTEM    = UTC
MEAN_ELEMENT_THEORY = SGP/SGP4

EPOCH          = 2025-12-02T22:13:54.762528
MEAN_MOTION    = 13.54591197
ECCENTRICITY   = .0044746
INCLINATION    = 100.3099
RA_OF_ASC_NODE = 208.1917
ARG_OF_PERICENTER = 92.3523
MEAN_ANOMALY   = 268.2736

EPHEMERIS_TYPE = 0
CLASSIFICATION_TYPE = U
NORAD_CAT_ID   = 81438
ELEMENT_SET_NO = 999
REV_AT_EPOCH   = 59061
BSTAR          = .54092E-2
MEAN_MOTION_DOT = .3678E-4
MEAN_MOTION_DDOT = 0

CCSDS_OMM_VERS = 2.0
CREATION_DATE  = 
ORIGINATOR     = 

OBJECT_NAME    = UNKNOWN
OBJECT_ID      = 
CENTER_NAME    = EARTH
REF_FRAME      = TEME
TIME_SYSTEM    = UTC
MEAN_ELEMENT_THEORY = SGP/SGP4

EPOCH          = 2025-12-07T04:21:35.474112
MEAN_MOTION    = 12.62607051
ECCENTRICITY   = .0603445
INCLINATION    = 67.1579
RA_OF_ASC_NODE = 152.5426
ARG_OF_PERICENTER = 206.5192
MEAN_ANOMALY   = 150.3748

EPHEMERIS_TYPE = 0
CLASSIFICATION_TYPE = U
NORAD_CAT_ID   = 81439
ELEMENT_SET_NO = 999
REV_AT_EPOCH   = 26119
BSTAR          = .11698E-2
MEAN_MOTION_DOT = .373E-5
MEAN_MOTION_DDOT = 0

CCSDS_OMM_VERS = 2.0
CREATION_DATE  = 
ORIGINATOR     = 

OBJECT_NAME    = UNKNOWN
OBJECT_ID      = 
CENTER_NAME    = EARTH
REF_FRAME      = TEME
TIME_SYSTEM    = UTC
MEAN_ELEMENT_THEORY = SGP/SGP4

EPOCH          = 2025-12-09T07:56:17.292480
MEAN_MOTION    = 14.99270228
ECCENTRICITY   = .0017677
INCLINATION    = 66.7948
RA_OF_ASC_NODE = 1.7367
ARG_OF_PERICENTER = 129.6775
MEAN_ANOMALY   = 230.5922

EPHEMERIS_TYPE = 0
CLASSIFICATION_TYPE = U
NORAD_CAT_ID   = 81449
ELEMENT_SET_NO = 999
REV_AT_EPOCH   = 63304
BSTAR          = .66132E-2
MEAN_MOTION_DOT = .82018E-3
MEAN_MOTION_DDOT = 0

CCSDS_OMM_VERS = 2.0
CREATION_DATE  = 
ORIGINATOR     = 

OBJECT_NAME    = UNKNOWN
OBJECT_ID      = 
CENTER_NAME    = EARTH
REF_FRAME      = TEME
TIME_SYSTEM    = UTC
MEAN_ELEMENT_THEORY = SGP/SGP4

EPOCH          = 2025-12-07T17:09:40.771008
MEAN_MOTION    = 14.28125267
ECCENTRICITY   = .0147979
INCLINATION    = 98.9505
RA_OF_ASC_NODE = 253.4858
ARG_OF_PERICENTER = 13.1187
MEAN_ANOMALY   = 52.7966

EPHEMERIS_TYPE = 0
CLASSIFICATION_TYPE = U
NORAD_CAT_ID   = 81478
ELEMENT_SET_NO = 999
REV_AT_EPOCH   = 62222
BSTAR          = .31983E-2
MEAN_MOTION_DOT = .8904E-4
MEAN_MOTION_DDOT = 0

CCSDS_OMM_VERS = 2.0
CREATION_DATE  = 
ORIGINATOR     = 

OBJECT_NAME    = UNKNOWN
OBJECT_ID      = 
CENTER_NAME    = EARTH
REF_FRAME      = TEME
TIME_SYSTEM    = UTC
MEAN_ELEMENT_THEORY = SGP/SGP4

EPOCH          = 2025-12-08T14:44:36.226752
MEAN_MOTION    = 13.56518752
ECCENTRICITY   = .0044947
INCLINATION    = 100.0011
RA_OF_ASC_NODE = 215.2114
ARG_OF_PERICENTER = 10.5381
MEAN_ANOMALY   = 17.4601

EPHEMERIS_TYPE = 0
CLASSIFICATION_TYPE = U
NORAD_CAT_ID   = 81488
ELEMENT_SET_NO = 999
REV_AT_EPOCH   = 59607
BSTAR          = .47358E-3
MEAN_MOTION_DOT = .29E-5
MEAN_MOTION_DDOT = 0

CCSDS_OMM_VERS = 2.0
CREATION_DATE  = 
ORIGINATOR     = 

OBJECT_NAME    = UNKNOWN
OBJECT_ID      = 
CENTER_NAME    = EARTH
REF_FRAME      = TEME
TIME_SYSTEM    = UTC
MEAN_ELEMENT_THEORY = SGP/SGP4

EPOCH          = 2025-12-09T11:23:28.423392
MEAN_MOTION    = 13.84120296
ECCENTRICITY   = .0029709
INCLINATION    = 100.2998
RA_OF_ASC_NODE = 237.8214
ARG_OF_PERICENTER = 22.1676
MEAN_ANOMALY   = 159.1699

EPHEMERIS_TYPE = 0
CLASSIFICATION_TYPE = U
NORAD_CAT_ID   = 81497
ELEMENT_SET_NO = 999
REV_AT_EPOCH   = 21584
BSTAR          = .5253E-2
MEAN_MOTION_DOT = .5824E-4
MEAN_MOTION_DDOT = 0

CCSDS_OMM_VERS = 2.0
CREATION_DATE  = 
ORIGINATOR     = 

OBJECT_NAME    = UNKNOWN
OBJECT_ID      = 
CENTER_NAME    = EARTH
REF_FRAME      = TEME
TIME_SYSTEM    = UTC
MEAN_ELEMENT_THEORY = SGP/SGP4

EPOCH          = 2025-12-09T15:54:45.730656
MEAN_MOTION    = 14.47098761
ECCENTRICITY   = .0001859
INCLINATION    = 74.0488
RA_OF_ASC_NODE = 226.8128
ARG_OF_PERICENTER = 286.2046
MEAN_ANOMALY   = 73.8908

EPHEMERIS_TYPE = 0
CLASSIFICATION_TYPE = U
NORAD_CAT_ID   = 81499
ELEMENT_SET_NO = 999
REV_AT_EPOCH   = 48197
BSTAR          = .11225E-2
MEAN_MOTION_DOT = .4066E-4
MEAN_MOTION_DDOT = 0

CCSDS_OMM_VERS = 2.0
CREATION_DATE  = 
ORIGINATOR     = 

OBJECT_NAME    = UNKNOWN
OBJECT_ID      = 
CENTER_NAME    = EARTH
REF_FRAME      = TEME
TIME_SYSTEM    = UTC
MEAN_ELEMENT_THEORY = SGP/SGP4

EPOCH          = 2025-12-09T11:06:10.896768
MEAN_MOTION    = 14.13421543
ECCENTRICITY   = .0236043
INCLINATION    = 98.2024
RA_OF_ASC_NODE = 65.9524
ARG_OF_PERICENTER = 158.0403
MEAN_ANOMALY   = 203.1091

EPHEMERIS_TYPE = 0
CLASSIFICATION_TYPE = U
NORAD_CAT_ID   = 81535
ELEMENT_SET_NO = 999
REV_AT_EPOCH   = 38693
BSTAR          = .12451E-2
MEAN_MOTION_DOT = .3014E-4
MEAN_MOTION_DDOT = 0

CCSDS_OMM_VERS = 2.0
CREATION_DATE  = 
ORIGINATOR     = 

OBJECT_NAME    = UNKNOWN
OBJECT_ID      = 
CENTER_NAME    = EARTH
REF_FRAME      = TEME
TIME_SYSTEM    = UTC
MEAN_ELEMENT_THEORY = SGP/SGP4

EPOCH          = 2025-12-09T02:20:38.825376
MEAN_MOTION    = 12.55861713
ECCENTRICITY   = .0035324
INCLINATION    = 101.9577
RA_OF_ASC_NODE = 204.1204
ARG_OF_PERICENTER = 297.5266
MEAN_ANOMALY   = 218.2123

EPHEMERIS_TYPE = 0
CLASSIFICATION_TYPE = U
NORAD_CAT_ID   = 81536
ELEMENT_SET_NO = 999
REV_AT_EPOCH   = 55135
BSTAR          = .53112E-2
MEAN_MOTION_DOT = .828E-5
MEAN_MOTION_DDOT = 0

CCSDS_OMM_VERS = 2.0
CREATION_DATE  = 
ORIGINATOR     = 

OBJECT_NAME    = UNKNOWN
OBJECT_ID      = 
CENTER_NAME    = EARTH
REF_FRAME      = TEME
TIME_SYSTEM    = UTC
MEAN_ELEMENT_THEORY = SGP/SGP4

EPOCH          = 2025-12-09T03:00:50.926752
MEAN_MOTION    = 14.07086680
ECCENTRICITY   = .0076346
INCLINATION    = 71.0382
RA_OF_ASC_NODE = 116.7253
ARG_OF_PERICENTER = 159.5108
MEAN_ANOMALY   = 200.9102

EPHEMERIS_TYPE = 0
CLASSIFICATION_TYPE = U
NORAD_CAT_ID   = 81537
ELEMENT_SET_NO = 999
REV_AT_EPOCH   = 61995
BSTAR          = .48074E-3
MEAN_MOTION_DOT = .78E-5
MEAN_MOTION_DDOT = 0

CCSDS_OMM_VERS = 2.0
CREATION_DATE  = 
ORIGINATOR     = 

OBJECT_NAME    = UNKNOWN
OBJECT_ID      = 
CENTER_NAME    = EARTH
REF_FRAME      = TEME
TIME_SYSTEM    = UTC
MEAN_ELEMENT_THEORY = SGP/SGP4

EPOCH          = 2025-11-30T18:57:16.788960
MEAN_MOTION    = 13.18139573
ECCENTRICITY   = .0258917
INCLINATION    = 99.0689
RA_OF_ASC_NODE = 263.0944
ARG_OF_PERICENTER = 46.5201
MEAN_ANOMALY   = 315.7133

EPHEMERIS_TYPE = 0
CLASSIFICATION_TYPE = U
NORAD_CAT_ID   = 81552
ELEMENT_SET_NO = 999
REV_AT_EPOCH   = 57767
BSTAR          = .23273E-2
MEAN_MOTION_DOT = .1048E-4
MEAN_MOTION_DDOT = 0

